{"type": "FeatureCollection", "features": [{"type": "Feature", "properties": {"norad_id": 25590, "name": "COSMOS 2361", "group": "musson", "lat": -18.810440105701268, "lon": 164.37488705716018, "alt_km": 981.4091580864288, "timestamp": "2025-12-15T14:57:58.084674+00:00", "meta": {"OBJECT_NAME": "COSMOS 2361", "OBJECT_ID": "1998-076A", "EPOCH": "2025-12-14T22:33:35.993088", "MEAN_MOTION": 13.73217718, "ECCENTRICITY": 0.00300674, "INCLINATION": 82.934, "RA_OF_ASC_NODE": 342.4589, "ARG_OF_PERICENTER": 259.2217, "MEAN_ANOMALY": 162.4401, "EPHEMERIS_TYPE": 0, "CLASSIFICATION_TYPE": "U", "NORAD_CAT_ID": 25590, "ELEMENT_SET_NO": 999, "REV_AT_EPOCH": 35141, "BSTAR": 7.3459132e-05, "MEAN_MOTION_DOT": 8.3e-07, "MEAN_MOTION_DDOT": 0}, "tle": {"line1": "1 25590U 98076A   25348.93999992  .00000083  00000+0  73459-4 0  9994", "line2": "2 25590  82.9340 342.4589 0030067 259.2217 162.4401 13.73217718351410"}}, "geometry": {"type": "Point", "coordinates": [164.37488705716018, -18.810440105701268]}}, {"type": "Feature", "properties": {"norad_id": 26818, "name": "COSMOS 2378", "group": "musson", "lat": -76.35009352984567, "lon": -33.158840062144726, "alt_km": 989.901154300167, "timestamp": "2025-12-15T14:57:58.084693+00:00", "meta": {"OBJECT_NAME": "COSMOS 2378", "OBJECT_ID": "2001-023A", "EPOCH": "2025-12-14T19:13:04.421568", "MEAN_MOTION": 13.74142119, "ECCENTRICITY": 0.00325282, "INCLINATION": 82.9272, "RA_OF_ASC_NODE": 358.1966, "ARG_OF_PERICENTER": 199.0718, "MEAN_ANOMALY": 334.0428, "EPHEMERIS_TYPE": 0, "CLASSIFICATION_TYPE": "U", "NORAD_CAT_ID": 26818, "ELEMENT_SET_NO": 999, "REV_AT_EPOCH": 22951, "BSTAR": 5.2584304e-05, "MEAN_MOTION_DOT": 6.5e-07, "MEAN_MOTION_DDOT": 0}, "tle": {"line1": "1 26818U 01023A   25348.80074562  .00000065  00000+0  52584-4 0  9993", "line2": "2 26818  82.9272 358.1966 0032528 199.0718 334.0428 13.74142119229516"}}, "geometry": {"type": "Point", "coordinates": [-33.158840062144726, -76.35009352984567]}}, {"type": "Feature", "properties": {"norad_id": 27436, "name": "COSMOS 2389", "group": "musson", "lat": 40.23227612446505, "lon": 118.84079189665329, "alt_km": 975.6123179678298, "timestamp": "2025-12-15T14:57:58.084705+00:00", "meta": {"OBJECT_NAME": "COSMOS 2389", "OBJECT_ID": "2002-026A", "EPOCH": "2025-12-14T22:52:07.528224", "MEAN_MOTION": 13.75154909, "ECCENTRICITY": 0.00475619, "INCLINATION": 82.9505, "RA_OF_ASC_NODE": 305.3462, "ARG_OF_PERICENTER": 54.7328, "MEAN_ANOMALY": 5.4523, "EPHEMERIS_TYPE": 0, "CLASSIFICATION_TYPE": "U", "NORAD_CAT_ID": 27436, "ELEMENT_SET_NO": 999, "REV_AT_EPOCH": 18179, "BSTAR": 6.1219189e-05, "MEAN_MOTION_DOT": 7.5e-07, "MEAN_MOTION_DDOT": 0}, "tle": {"line1": "1 27436U 02026A   25348.95286491  .00000075  00000+0  61219-4 0  9992", "line2": "2 27436  82.9505 305.3462 0047561  54.7328   5.4523 13.75154909181797"}}, "geometry": {"type": "Point", "coordinates": [118.84079189665329, 40.23227612446505]}}, {"type": "Feature", "properties": {"norad_id": 27818, "name": "COSMOS 2398", "group": "musson", "lat": 61.61699088267862, "lon": -76.1841308027175, "alt_km": 966.9731486088522, "timestamp": "2025-12-15T14:57:58.084715+00:00", "meta": {"OBJECT_NAME": "COSMOS 2398", "OBJECT_ID": "2003-023A", "EPOCH": "2025-12-14T21:30:06.973056", "MEAN_MOTION": 13.72385892, "ECCENTRICITY": 0.00326389, "INCLINATION": 82.9485, "RA_OF_ASC_NODE": 271.1094, "ARG_OF_PERICENTER": 106.0133, "MEAN_ANOMALY": 323.5985, "EPHEMERIS_TYPE": 0, "CLASSIFICATION_TYPE": "U", "NORAD_CAT_ID": 27818, "ELEMENT_SET_NO": 999, "REV_AT_EPOCH": 12846, "BSTAR": 3.6947691e-05, "MEAN_MOTION_DOT": 4.9e-07, "MEAN_MOTION_DDOT": 0}, "tle": {"line1": "1 27818U 03023A   25348.89591404  .00000049  00000+0  36948-4 0  9992", "line2": "2 27818  82.9485 271.1094 0032638 106.0133 323.5985 13.72385892128468"}}, "geometry": {"type": "Point", "coordinates": [-76.1841308027175, 61.61699088267862]}}, {"type": "Feature", "properties": {"norad_id": 28380, "name": "COSMOS 2407", "group": "musson", "lat": -60.53226027488375, "lon": -161.87404817318966, "alt_km": 993.291332813782, "timestamp": "2025-12-15T14:57:58.084725+00:00", "meta": {"OBJECT_NAME": "COSMOS 2407", "OBJECT_ID": "2004-028A", "EPOCH": "2025-12-14T21:52:02.046720", "MEAN_MOTION": 13.76313914, "ECCENTRICITY": 0.004026, "INCLINATION": 82.9604, "RA_OF_ASC_NODE": 211.2851, "ARG_OF_PERICENTER": 48.953, "MEAN_ANOMALY": 322.208, "EPHEMERIS_TYPE": 0, "CLASSIFICATION_TYPE": "U", "NORAD_CAT_ID": 28380, "ELEMENT_SET_NO": 999, "REV_AT_EPOCH": 7453, "BSTAR": 6.7806638e-05, "MEAN_MOTION_DOT": 8.2e-07, "MEAN_MOTION_DDOT": 0}, "tle": {"line1": "1 28380U 04028A   25348.91113480  .00000082  00000+0  67807-4 0  9995", "line2": "2 28380  82.9604 211.2851 0040260  48.9530 322.2080 13.76313914 74537"}}, "geometry": {"type": "Point", "coordinates": [-161.87404817318966, -60.53226027488375]}}, {"type": "Feature", "properties": {"norad_id": 28521, "name": "COSMOS 2414", "group": "musson", "lat": -37.06162992634582, "lon": 177.11570432593513, "alt_km": 971.7578598243772, "timestamp": "2025-12-15T14:57:58.084735+00:00", "meta": {"OBJECT_NAME": "COSMOS 2414", "OBJECT_ID": "2005-002A", "EPOCH": "2025-12-14T21:50:41.981568", "MEAN_MOTION": 13.87903234, "ECCENTRICITY": 0.00410136, "INCLINATION": 82.9489, "RA_OF_ASC_NODE": 183.0187, "ARG_OF_PERICENTER": 133.6041, "MEAN_ANOMALY": 226.8538, "EPHEMERIS_TYPE": 0, "CLASSIFICATION_TYPE": "U", "NORAD_CAT_ID": 28521, "ELEMENT_SET_NO": 999, "REV_AT_EPOCH": 5825, "BSTAR": 7.3412594e-05, "MEAN_MOTION_DOT": 1.04e-06, "MEAN_MOTION_DDOT": 0}, "tle": {"line1": "1 28521U 05002A   25348.91020812  .00000104  00000+0  73413-4 0  9996", "line2": "2 28521  82.9489 183.0187 0041013 133.6041 226.8538 13.87903234 58259"}}, "geometry": {"type": "Point", "coordinates": [177.11570432593513, -37.06162992634582]}}, {"type": "Feature", "properties": {"norad_id": 32052, "name": "COSMOS 2429", "group": "musson", "lat": -35.631203886407036, "lon": -23.88342595596561, "alt_km": 975.4728555012925, "timestamp": "2025-12-15T14:57:58.084745+00:00", "meta": {"OBJECT_NAME": "COSMOS 2429", "OBJECT_ID": "2007-038A", "EPOCH": "2025-12-14T16:26:18.580992", "MEAN_MOTION": 13.75149534, "ECCENTRICITY": 0.00391399, "INCLINATION": 82.9804, "RA_OF_ASC_NODE": 341.8746, "ARG_OF_PERICENTER": 32.5527, "MEAN_ANOMALY": 327.8031, "EPHEMERIS_TYPE": 0, "CLASSIFICATION_TYPE": "U", "NORAD_CAT_ID": 32052, "ELEMENT_SET_NO": 999, "REV_AT_EPOCH": 91629, "BSTAR": 6.9252386e-05, "MEAN_MOTION_DOT": 8.2e-07, "MEAN_MOTION_DDOT": 0}, "tle": {"line1": "1 32052U 07038A   25348.68493728  .00000082  00000+0  69252-4 0  9996", "line2": "2 32052  82.9804 341.8746 0039139  32.5527 327.8031 13.75149534916290"}}, "geometry": {"type": "Point", "coordinates": [-23.88342595596561, -35.631203886407036]}}, {"type": "Feature", "properties": {"norad_id": 35635, "name": "COSMOS 2454", "group": "musson", "lat": 33.49533000725496, "lon": 171.15243180185664, "alt_km": 914.1050978928379, "timestamp": "2025-12-15T14:57:58.084754+00:00", "meta": {"OBJECT_NAME": "COSMOS 2454", "OBJECT_ID": "2009-039A", "EPOCH": "2025-12-14T22:02:52.324224", "MEAN_MOTION": 13.89928845, "ECCENTRICITY": 0.00204009, "INCLINATION": 82.9554, "RA_OF_ASC_NODE": 166.9932, "ARG_OF_PERICENTER": 67.9033, "MEAN_ANOMALY": 40.8357, "EPHEMERIS_TYPE": 0, "CLASSIFICATION_TYPE": "U", "NORAD_CAT_ID": 35635, "ELEMENT_SET_NO": 999, "REV_AT_EPOCH": 83180, "BSTAR": 6.061045e-05, "MEAN_MOTION_DOT": 9.1e-07, "MEAN_MOTION_DDOT": 0}, "tle": {"line1": "1 35635U 09039A   25348.91866116  .00000091  00000+0  60610-4 0  9999", "line2": "2 35635  82.9554 166.9932 0020400  67.9033  40.8357 13.89928845831801"}}, "geometry": {"type": "Point", "coordinates": [171.15243180185664, 33.49533000725496]}}, {"type": "Feature", "properties": {"norad_id": 36519, "name": "COSMOS 2463", "group": "musson", "lat": -63.6438051574948, "lon": -140.96638830615504, "alt_km": 979.9323600769803, "timestamp": "2025-12-15T14:57:58.084764+00:00", "meta": {"OBJECT_NAME": "COSMOS 2463", "OBJECT_ID": "2010-017A", "EPOCH": "2025-12-14T15:35:17.424672", "MEAN_MOTION": 13.71649265, "ECCENTRICITY": 0.00347608, "INCLINATION": 82.9612, "RA_OF_ASC_NODE": 25.3093, "ARG_OF_PERICENTER": 282.5486, "MEAN_ANOMALY": 194.9131, "EPHEMERIS_TYPE": 0, "CLASSIFICATION_TYPE": "U", "NORAD_CAT_ID": 36519, "ELEMENT_SET_NO": 999, "REV_AT_EPOCH": 78263, "BSTAR": 4.5971433e-05, "MEAN_MOTION_DOT": 5.6e-07, "MEAN_MOTION_DDOT": 0}, "tle": {"line1": "1 36519U 10017A   25348.64950723  .00000056  00000+0  45971-4 0  9991", "line2": "2 36519  82.9612  25.3093 0034760 282.5486 194.9131 13.71649265782639"}}, "geometry": {"type": "Point", "coordinates": [-140.96638830615504, -63.6438051574948]}}]}